NORAD_CAT_ID,OBJECT_NAME,OBJECT_TYPE,EPOCH,MEAN_MOTION,ECCENTRICITY,INCLINATION,RA_OF_ASC_NODE,ARG_OF_PERICENTER,MEAN_ANOMALY,BSTAR,MEAN_MOTION_DOT,MEAN_MOTION_DDOT,TLE_LINE0,TLE_LINE1,TLE_LINE2,SEMIMAJOR_AXIS,PERIOD,APOGEE,PERIGEE,DECAYED
50839.0,STARLINK-3320,PAYLOAD,2022-08-26 22:18:17,15.08841369,0.0001888,53.2172,213.5657,63.8685,296.2502,1.4022e-05,-6.5e-07,0.0,0 STARLINK-3320,1 50839U 22001AN  22238.92936374 -.00000065  00000-0  14022-4 0  9995,2 50839  53.2172 213.5657 0001888  63.8685 296.2502 15.08841369 35398,6917.876,95.437,541.047,538.435,0.0
50839.0,STARLINK-3320,PAYLOAD,2022-08-27 07:50:35,15.08843803,0.0001915,53.2172,211.7816,66.9283,293.1911,1.3621e-05,-7.1e-07,0.0,0 STARLINK-3320,1 50839U 22001AN  22239.32680250 -.00000071  00000-0  13621-4 0  9990,2 50839  53.2172 211.7816 0001915  66.9283 293.1911 15.08843803 35456,6917.869000000002,95.437,541.059,538.409,0.0
50839.0,STARLINK-3320,PAYLOAD,2022-08-27 15:47:31,15.08840521,0.0001905,53.2173,210.2948,63.1152,297.0035,0.00011714,1.577e-05,0.0,0 STARLINK-3320,1 50839U 22001AN  22239.65800293  .00001577  00000-0  11714-3 0  9998,2 50839  53.2173 210.2948 0001905  63.1152 297.0035 15.08840521 35500,6917.879,95.438,541.062,538.4259999999998,0.0
50839.0,STARLINK-3320,PAYLOAD,2022-08-28 04:30:36,15.08847193,0.0001924,53.2171,207.9161,61.8817,298.2369,0.00019878,2.877e-05,0.0,0 STARLINK-3320,1 50839U 22001AN  22240.18791954  .00002877  00000-0  19878-3 0  9994,2 50839  53.2171 207.9161 0001924  61.8817 298.2369 15.08847193 36867,6917.858,95.437,541.054,538.3919999999998,0.0
50839.0,STARLINK-3320,PAYLOAD,2022-08-28 07:41:22,15.08847778,0.000196,53.2163,207.3212,61.4137,298.7052,0.0002721,4.046e-05,0.0,0 STARLINK-3320,1 50839U 22001AN  22240.32040259  .00004046  00000-0  27210-3 0  9994,2 50839  53.2163 207.3212 0001960  61.4137 298.7052 15.08847778 35604,6917.857,95.437,541.078,538.366,0.0
50839.0,STARLINK-3320,PAYLOAD,2022-08-29 05:56:46,15.08843102,0.0002000999999999,53.2165,203.1581,61.4629,298.6564,8.560299999999999e-05,1.075e-05,0.0,0 STARLINK-3320,1 50839U 22001AN  22241.24776221  .00001075  00000-0  85603-4 0  9991,2 50839  53.2165 203.1581 0002001  61.4629 298.6564 15.08843102 37024,6917.871,95.437,541.12,538.352,0.0
50839.0,STARLINK-3320,PAYLOAD,2022-08-29 07:32:09,15.08842396,0.0002003,53.2166,202.8609,61.4378,298.6815,7.0659e-05,8.37e-06,0.0,0 STARLINK-3320,1 50839U 22001AN  22241.31400240  .00000837  00000-0  70659-4 0  9994,2 50839  53.2166 202.8609 0002003  61.4378 298.6815 15.08842396 35756,6917.873000000001,95.437,541.124,538.352,0.0
50839.0,STARLINK-3320,PAYLOAD,2022-08-30 07:22:57,15.08838865,0.0001911,53.2171,198.4014,62.6507,297.4679,-2.1358e-05,-6.28e-06,0.0,0 STARLINK-3320,1 50839U 22001AN  22242.30760469 -.00000628  00000-0 -21358-4 0  9998,2 50839  53.2171 198.4014 0001911  62.6507 297.4679 15.08838865 35904,6917.884,95.438,541.071,538.427,0.0
50839.0,STARLINK-3320,PAYLOAD,2022-08-30 21:41:25,15.08833716,0.0001933,53.2176,195.7245,61.0608,299.0578,5.4271e-05,5.76e-06,0.0,0 STARLINK-3320,1 50839U 22001AN  22242.90376743  .00000576  00000-0  54271-4 0  9992,2 50839  53.2176 195.7245 0001933  61.0608 299.0578 15.08833716 35999,6917.9,95.438,541.102,538.427,0.0
50839.0,STARLINK-3320,PAYLOAD,2022-08-31 07:13:43,15.08838057,0.0001968,53.2167,193.9406,62.1721,297.9471,5.9839e-05,6.64e-06,0.0,0 STARLINK-3320,1 50839U 22001AN  22243.30120356  .00000664  00000-0  59839-4 0  9997,2 50839  53.2167 193.9406 0001968  62.1721 297.9471 15.08838057 36054,6917.886,95.438,541.113,538.39,0.0
50839.0,STARLINK-3320,PAYLOAD,2022-08-31 19:56:48,15.08842643,0.0001986,53.2168,191.5618,62.8732,297.2462,0.00010493,1.382e-05,0.0,0 STARLINK-3320,1 50839U 22001AN  22243.83112152  .00001382  00000-0  10493-3 0  9990,2 50839  53.2168 191.5618 0001986  62.8732 297.2462 15.08842643 37413,6917.871999999999,95.437,541.111,538.363,0.0
50839.0,STARLINK-3320,PAYLOAD,2022-08-31 21:32:12,15.08841566,0.0001985,53.2173,191.264,62.33,297.7894,8.947399999999999e-05,1.136e-05,0.0,0 STARLINK-3320,1 50839U 22001AN  22243.89736250  .00001136  00000-0  89474-4 0  9990,2 50839  53.2173 191.2640 0001985  62.3300 297.7894 15.08841566 36142,6917.876,95.437,541.114,538.367,0.0
50839.0,STARLINK-3320,PAYLOAD,2022-09-01 03:53:45,15.08829698,0.0001979,53.2174,190.0746,62.166,297.9533,-8.2375e-05,-1.599e-05,0.0,0 STARLINK-3320,1 50839U 22001AN  22244.16232978 -.00001599  00000-0 -82375-4 0  9997,2 50839  53.2174 190.0746 0001979  62.1660 297.9533 15.08829698 37467,6917.9119999999975,95.438,541.146,538.408,0.0
50839.0,STARLINK-3320,PAYLOAD,2022-09-01 05:29:08,15.08828709,0.0001968,53.2171,189.7774,61.7505,298.3685,-8.5302e-05,-1.645e-05,0.0,0 STARLINK-3320,1 50839U 22001AN  22244.22857071 -.00001645  00000-0 -85302-4 0  9996,2 50839  53.2171 189.7774 0001968  61.7505 298.3685 15.08828709 36195,6917.915,95.438,541.141,538.418,0.0
50839.0,STARLINK-3320,PAYLOAD,2022-09-02 05:19:55,15.08837412,0.0001911,53.2179,185.3169,61.2063,298.9121,8.365799999999999e-05,1.043e-05,0.0,0 STARLINK-3320,1 50839U 22001AN  22245.22217472  .00001043  00000-0  83658-4 0  9994,2 50839  53.2179 185.3169 0001911  61.2063 298.9121 15.08837412 36344,6917.888000000001,95.438,541.075,538.431,0.0
50839.0,STARLINK-3320,PAYLOAD,2022-09-02 19:38:23,15.08842773,0.0001881,53.2179,182.6414,60.7197,299.3983,7.663e-05,9.32e-06,0.0,0 STARLINK-3320,1 50839U 22001AN  22245.81833057  .00000932  00000-0  76630-4 0  9990,2 50839  53.2179 182.6414 0001881  60.7197 299.3983 15.08842773 36432,6917.871999999999,95.437,541.038,538.436,0.0
50839.0,STARLINK-3320,PAYLOAD,2022-09-03 05:10:42,15.08846539,0.0001898,53.2174,180.8571,62.511,297.6075,0.00027317,4.063e-05,0.0,0 STARLINK-3320,1 50839U 22001AN  22246.21576800  .00004063  00000-0  27317-3 0  9991,2 50839  53.2174 180.8571 0001898  62.5110 297.6075 15.08846539 37779,6917.86,95.437,541.038,538.4119999999998,0.0
50839.0,STARLINK-3320,PAYLOAD,2022-09-03 19:29:10,15.08856897,0.0001955,53.2168,178.1808,63.9115,296.2079,0.00032966,4.965e-05,0.0,0 STARLINK-3320,1 50839U 22001AN  22246.81192499  .00004965  00000-0  32966-3 0  9992,2 50839  53.2168 178.1808 0001955  63.9115 296.2079 15.08856897 36584,6917.829000000002,95.436,541.0459999999998,538.341,0.0
50839.0,STARLINK-3320,PAYLOAD,2022-09-04 12:58:24,15.08848033,0.0001940999999999,53.2169,174.9093,65.2597,294.8597,0.00012343,1.677e-05,0.0,0 STARLINK-3320,1 50839U 22001AN  22247.54056553  .00001677  00000-0  12343-3 0  9997,2 50839  53.2169 174.9093 0001941  65.2597 294.8597 15.08848033 36693,6917.856,95.437,541.064,538.378,0.0
50839.0,STARLINK-3320,PAYLOAD,2022-09-04 19:19:57,15.08847572,0.0001968,53.217,173.7196,66.9342,293.1857,5.8031e-05,6.36e-06,0.0,0 STARLINK-3320,1 50839U 22001AN  22247.80552430  .00000636  00000-0  58031-4 0  9990,2 50839  53.2170 173.7196 0001968  66.9342 293.1857 15.08847572 36734,6917.857,95.437,541.0840000000002,538.361,0.0
50839.0,STARLINK-3320,PAYLOAD,2022-09-05 04:52:16,15.08846665,0.0002002,53.2178,171.9367,62.3116,297.8079,1.8163e-05,1e-08,0.0,0 STARLINK-3320,1 50839U 22001AN  22248.20296335  .00000001  00000-0  18163-4 0  9992,2 50839  53.2178 171.9367 0002002  62.3116 297.8079 15.08846665 36796,6917.86,95.437,541.11,538.34,0.0
50839.0,STARLINK-3320,PAYLOAD,2022-09-05 19:10:44,15.08840902,0.0001868,53.2181,169.2621,55.3386,304.7782,1.2058e-05,-9.6e-07,0.0,0 STARLINK-3320,1 50839U 22001AN  22248.79912431 -.00000096  00000-0  12058-4 0  9990,2 50839  53.2181 169.2621 0001868  55.3386 304.7782 15.08840902 36880,6917.878000000002,95.437,541.035,538.45,0.0
50839.0,STARLINK-3320,PAYLOAD,2022-09-06 04:43:03,15.08837089,0.0001748,53.218,167.4758,62.494,297.623,-2.242e-05,-6.45e-06,0.0,0 STARLINK-3320,1 50839U 22001AN  22249.19656756 -.00000645  00000-0 -22420-4 0  9995,2 50839  53.2180 167.4758 0001748  62.4940 297.6230 15.08837089 36949,6917.889,95.438,540.964,538.545,0.0
50839.0,STARLINK-3320,PAYLOAD,2022-09-06 19:01:32,15.08827155,0.000171,53.2181,164.7997,65.9219,294.1952,-6.547e-05,-1.329e-05,0.0,0 STARLINK-3320,1 50839U 22001AN  22249.79273836 -.00001329  00000-0 -65470-4 0  9997,2 50839  53.2181 164.7997 0001710  65.9219 294.1952 15.08827155 38310,6917.92,95.438,540.9680000000002,538.602,0.0
50839.0,STARLINK-3320,PAYLOAD,2022-09-07 04:33:51,15.08834752,0.0001688,53.218,163.0158,59.5828,300.5331,-6.2697e-06,-3.88e-06,0.0,0 STARLINK-3320,1 50839U 22001AN  22250.19017390 -.00000388  00000-0 -62697-5 0  9997,2 50839  53.2180 163.0158 0001688  59.5828 300.5331 15.08834752 38379,6917.896,95.438,540.929,538.594,0.0
50839.0,STARLINK-3320,PAYLOAD,2022-09-08 02:49:16,15.08825326,0.000165,53.2178,158.8522,57.4493,302.6659,4.33e-05,4.01e-06,0.0,0 STARLINK-3320,1 50839U 22001AN  22251.11754670  .00000401  00000-0  43300-4 0  9992,2 50839  53.2178 158.8522 0001650  57.4493 302.6659 15.08825326 38516,6917.925,95.438,540.932,538.649,0.0
50839.0,STARLINK-3320,PAYLOAD,2022-09-09 02:40:01,15.08848498,0.000166,53.2181,154.3917,55.0893,305.0255,0.00018873,2.718e-05,0.0,0 STARLINK-3320,1 50839U 22001AN  22252.11113121  .00002718  00000-0  18873-3 0  9992,2 50839  53.2181 154.3917 0001660  55.0893 305.0255 15.08848498 37386,6917.854,95.437,540.868,538.571,0.0
50839.0,STARLINK-3320,PAYLOAD,2022-09-09 18:33:53,15.0884837,0.0001571,53.2178,151.4187,56.4807,303.6335,0.00014759,2.062e-05,0.0,0 STARLINK-3320,1 50839U 22001AN  22252.77353164  .00002062  00000-0  14759-3 0  9998,2 50839  53.2178 151.4187 0001571  56.4807 303.6335 15.08848370 37483,6917.855,95.437,540.807,538.633,0.0
50839.0,STARLINK-3320,PAYLOAD,2022-09-10 02:30:48,15.08844992,0.000149,53.2183,149.9302,59.3992,300.7147,0.00011494,1.542e-05,0.0,0 STARLINK-3320,1 50839U 22001AN  22253.10473358  .00001542  00000-0  11494-3 0  9999,2 50839  53.2183 149.9302 0001490  59.3992 300.7147 15.08844992 38810,6917.865,95.437,540.761,538.6990000000002,0.0
